[{"OBJECT_NAME":"STARLINK-4251","OBJECT_ID":"2022-077AS","EPOCH":"2026-03-09T22:52:43.813632","MEAN_MOTION":15.05645532,"ECCENTRICITY":0.00019401,"INCLINATION":97.6019,"RA_OF_ASC_NODE":251.4402,"ARG_OF_PERICENTER":87.1525,"MEAN_ANOMALY":272.9924,"EPHEMERIS_TYPE":0,"CLASSIFICATION_TYPE":"U","NORAD_CAT_ID":53083,"ELEMENT_SET_NO":999,"REV_AT_EPOCH":20102,"BSTAR":-3.0036315e-5,"MEAN_MOTION_DOT":-4.94e-6,"MEAN_MOTION_DDOT":0},{"OBJECT_NAME":"ION SCV-013","OBJECT_ID":"2023-174AW","EPOCH":"2026-03-09T22:59:29.755392","MEAN_MOTION":15.04632564,"ECCENTRICITY":0.00998876,"INCLINATION":97.6297,"RA_OF_ASC_NODE":125.3193,"ARG_OF_PERICENTER":172.5348,"MEAN_ANOMALY":187.7394,"EPHEMERIS_TYPE":0,"CLASSIFICATION_TYPE":"U","NORAD_CAT_ID":58300,"ELEMENT_SET_NO":999,"REV_AT_EPOCH":12661,"BSTAR":0.00023880169,"MEAN_MOTION_DOT":3.68e-5,"MEAN_MOTION_DDOT":0}]
